0 COSMOS 2179 (GLONASS)
1 21855U 92005C   13282.24792369  .00000031  00000-0  00000+0 0  4634
2 21855 064.1310 229.7045 0005901 212.4288 021.5016 02.13102998168835
0 COSMOS 2179 (GLONASS)
1 21855U 92005C   13285.91491696 -.00000009  00000-0  00000+0 0  4647
2 21855 064.1301 229.5775 0005945 212.2835 314.8548 02.13103129168911
0 COSMOS 2179 (GLONASS)
1 21855U 92005C   13288.33983760 -.00000037  00000-0  00000+0 0  4656
2 21855 064.1296 229.4936 0005949 212.3584 015.1083 02.13103171168965
0 COSMOS 2179 (GLONASS)
1 21855U 92005C   13290.38955096 -.00000004  00000-0  10000-3 0  4676
2 21855 064.1299 229.4215 0006070 213.1373 146.8147 02.13104257169004
0 COSMOS 2179 (GLONASS)
1 21855U 92005C   13290.70532183 -.00000035  00000-0  00000+0 0  4668
2 21855 064.1290 229.4117 0005947 212.5113 029.6874 02.13103184169017
0 COSMOS 2179 (GLONASS)
1 21855U 92005C   13293.07114172 -.00000014  00000-0  00000+0 0  4673
2 21855 064.1285 229.3298 0005928 212.5343 044.6543 02.13103157169069
0 COSMOS 2179 (GLONASS)
1 21855U 92005C   13295.43725757 -.00000000  00000-0  00000+0 0  4688
2 21855 064.1279 229.2481 0005919 212.6840 059.7224 02.13103094169117
